[{"OBJECT_NAME":"STARLINK-1080","OBJECT_ID":"2020-001AZ","EPOCH":"2026-03-09T20:59:34.461888","MEAN_MOTION":15.47300458,"ECCENTRICITY":0.00070389,"INCLINATION":53.0522,"RA_OF_ASC_NODE":287.315,"ARG_OF_PERICENTER":121.0745,"MEAN_ANOMALY":239.0954,"EPHEMERIS_TYPE":0,"CLASSIFICATION_TYPE":"U","NORAD_CAT_ID":44961,"ELEMENT_SET_NO":999,"REV_AT_EPOCH":34070,"BSTAR":0.0022013341,"MEAN_MOTION_DOT":0.00115497,"MEAN_MOTION_DDOT":0},{"OBJECT_NAME":"YAM-3","OBJECT_ID":"2021-059AN","EPOCH":"2026-03-09T22:25:33.474144","MEAN_MOTION":15.4615473,"ECCENTRICITY":0.00051411,"INCLINATION":97.6977,"RA_OF_ASC_NODE":249.5762,"ARG_OF_PERICENTER":6.9981,"MEAN_ANOMALY":353.1338,"EPHEMERIS_TYPE":0,"CLASSIFICATION_TYPE":"U","NORAD_CAT_ID":48915,"ELEMENT_SET_NO":999,"REV_AT_EPOCH":26164,"BSTAR":0.00032706033,"MEAN_MOTION_DOT":0.00015961,"MEAN_MOTION_DDOT":0}]
